NORAD_CAT_ID,OBJECT_NAME,OBJECT_TYPE,EPOCH,MEAN_MOTION,ECCENTRICITY,INCLINATION,RA_OF_ASC_NODE,ARG_OF_PERICENTER,MEAN_ANOMALY,BSTAR,MEAN_MOTION_DOT,MEAN_MOTION_DDOT,TLE_LINE0,TLE_LINE1,TLE_LINE2,SEMIMAJOR_AXIS,PERIOD,APOGEE,PERIGEE,DECAYED
55765.0,STARLINK-5595,PAYLOAD,2024-07-20 13:14:08,14.98329887,0.0002746,70.0011,290.2164,265.9407,94.1438,6.4265e-05,6.74e-06,0.0,0 STARLINK-5595,1 55765U 23028AA  24202.55148534  .00000674  00000-0  64265-4 0  9992,2 55765  70.0011 290.2164 0002746 265.9407  94.1438 14.98329887 77074,6950.193,96.107,573.967,570.15,0.0
55765.0,STARLINK-5595,PAYLOAD,2024-07-20 14:50:16,14.983306,0.0002713,70.0012,290.048,265.5051,94.5798,6.7156e-05,7.08e-06,0.0,0 STARLINK-5595,1 55765U 23028AA  24202.61824478  .00000708  00000-0  67156-4 0  9997,2 55765  70.0012 290.0480 0002713 265.5051  94.5798 14.98330600 77099,6950.191,96.107,573.942,570.17,0.0
55765.0,STARLINK-5595,PAYLOAD,2024-07-20 18:02:32,14.98331995,0.0002812,70.0008,289.7114,263.2728,96.8111,6.3028e-05,6.59e-06,0.0,0 STARLINK-5595,1 55765U 23028AA  24202.75176332  .00000659  00000-0  63028-4 0  9990,2 55765  70.0008 289.7114 0002812 263.2728  96.8111 14.98331995 77114,6950.187,96.107,574.006,570.097,0.0
55765.0,STARLINK-5595,PAYLOAD,2024-07-21 13:16:09,14.98329297,0.0002895,70.0007,287.6914,259.3041,100.7792,-0.00010238,-1.314e-05,0.0,0 STARLINK-5595,1 55765U 23028AA  24203.55288860 -.00001314  00000-0 -10238-3 0  9994,2 55765  70.0007 287.6914 0002895 259.3041 100.7792 14.98329297 77227,6950.195,96.107,574.072,570.048,0.0
55765.0,STARLINK-5595,PAYLOAD,2024-07-21 14:52:17,14.98330095,0.0002879,70.0007,287.5233,258.75,101.3335,-9.0401e-05,-1.171e-05,0.0,0 STARLINK-5595,1 55765U 23028AA  24203.61964778 -.00001171  00000-0 -90401-4 0  9992,2 55765  70.0007 287.5233 0002879 258.7500 101.3335 14.98330095 77245,6950.193,96.107,574.059,570.057,0.0
55765.0,STARLINK-5595,PAYLOAD,2024-07-22 10:05:54,14.98327088,0.0002893,70.0003,285.5016,268.8289,91.2539,1.1287e-05,4.2e-07,0.0,0 STARLINK-5595,1 55765U 23028AA  24204.42076813  .00000042  00000-0  11287-4 0  9995,2 55765  70.0003 285.5016 0002893 268.8289  91.2539 14.98327088 77364,6950.202,96.107,574.078,570.056,0.0
55765.0,STARLINK-5595,PAYLOAD,2024-07-22 14:54:18,14.98333736,0.0002953,69.9999,284.9965,268.5119,91.5702,3.279e-05,2.98e-06,0.0,0 STARLINK-5595,1 55765U 23028AA  24204.62104317  .00000298  00000-0  32790-4 0  9993,2 55765  69.9999 284.9965 0002953 268.5119  91.5702 14.98333736 77381,6950.181,96.107,574.099,569.994,0.0
55765.0,STARLINK-5595,PAYLOAD,2024-07-23 10:07:55,14.98327353,0.0002992,70.0,282.977,266.1004,93.9812,8.5477e-05,9.27e-06,0.0,0 STARLINK-5595,1 55765U 23028AA  24205.42216480  .00000927  00000-0  85477-4 0  9996,2 55765  70.0000 282.9770 0002992 266.1004  93.9812 14.98327353 77510,6950.201,96.107,574.146,569.987,0.0
55765.0,STARLINK-5595,PAYLOAD,2024-07-24 10:09:56,14.98328958,0.0003182,69.9993,280.453,269.8058,90.2737,-6.3914e-05,-8.56e-06,0.0,0 STARLINK-5595,1 55765U 23028AA  24206.42356843 -.00000856  00000-0 -63914-4 0  9990,2 55765  69.9993 280.4530 0003182 269.8058  90.2737 14.98328958 77659,6950.196,96.107,574.273,569.85,0.0
55765.0,STARLINK-5595,PAYLOAD,2024-07-24 14:58:20,14.98330726,0.0003211,69.9989,279.9469,270.8205,89.2586,-4.6534e-05,-6.48e-06,0.0,0 STARLINK-5595,1 55765U 23028AA  24206.62384671 -.00000648  00000-0 -46534-4 0  9990,2 55765  69.9989 279.9469 0003211 270.8205  89.2586 14.98330726 77697,6950.191,96.107,574.287,569.824,0.0
55765.0,STARLINK-5595,PAYLOAD,2024-07-25 06:59:40,14.98331449,0.0003251,69.9987,278.2629,271.7954,88.2833,1.2911e-05,6.1e-07,0.0,0 STARLINK-5595,1 55765U 23028AA  24207.29144401  .00000061  00000-0  12911-4 0  9998,2 55765  69.9987 278.2629 0003251 271.7954  88.2833 14.98331449 77798,6950.188,96.107,574.313,569.794,0.0
55765.0,STARLINK-5595,PAYLOAD,2024-07-25 10:11:56,14.98331949,0.0003262,69.9989,277.9265,272.4155,87.6631,1.93e-05,1.37e-06,0.0,0 STARLINK-5595,1 55765U 23028AA  24207.42496346  .00000137  00000-0  19300-4 0  9994,2 55765  69.9989 277.9265 0003262 272.4155  87.6631 14.98331949 77801,6950.187,96.107,574.319,569.785,0.0
55765.0,STARLINK-5595,PAYLOAD,2024-07-25 15:00:20,14.98336771,0.0003198,69.9988,277.421,271.836,88.2433,7.3182e-05,7.8e-06,0.0,0 STARLINK-5595,1 55765U 23028AA  24207.62523820  .00000780  00000-0  73182-4 0  9996,2 55765  69.9988 277.4210 0003198 271.8360  88.2433 14.98336771 77843,6950.172,96.107,574.26,569.814,0.0
55765.0,STARLINK-5595,PAYLOAD,2024-07-26 10:13:57,14.9832818,0.0003027,69.9993,275.4015,272.195,87.8862,6.2442e-05,6.52e-06,0.0,0 STARLINK-5595,1 55765U 23028AA  24208.42636301  .00000652  00000-0  62442-4 0  9999,2 55765  69.9993 275.4015 0003027 272.1950  87.8862 14.98328180 77958,6950.199,96.107,574.167,569.96,0.0
55765.0,STARLINK-5595,PAYLOAD,2024-07-26 21:26:53,14.98334198,0.0002967,69.9994,274.2232,273.3466,86.7354,4.8709e-05,4.88e-06,0.0,0 STARLINK-5595,1 55765U 23028AA  24208.89367890  .00000488  00000-0  48709-4 0  9991,2 55765  69.9994 274.2232 0002967 273.3466  86.7354 14.98334198 78034,6950.18,96.107,574.107,569.983,0.0
55765.0,STARLINK-5595,PAYLOAD,2024-07-27 05:27:34,14.98332927,0.0002912,69.9994,273.3821,270.2819,89.8006,-4.7891e-05,-6.64e-06,0.0,0 STARLINK-5595,1 55765U 23028AA  24209.22748165 -.00000664  00000-0 -47891-4 0  9996,2 55765  69.9994 273.3821 0002912 270.2819  89.8006 14.98332927 78087,6950.184,96.107,574.073,570.025,0.0
55765.0,STARLINK-5595,PAYLOAD,2024-07-27 10:15:58,14.98330024,0.0002962,69.9992,272.8771,269.1415,90.9405,-7.927e-05,-1.039e-05,0.0,0 STARLINK-5595,1 55765U 23028AA  24209.42776387 -.00001039  00000-0 -79270-4 0  9998,2 55765  69.9992 272.8771 0002962 269.1415  90.9405 14.98330024 78102,6950.193,96.107,574.116,569.999,0.0
55765.0,STARLINK-5595,PAYLOAD,2024-07-27 15:04:22,14.98331864,0.0002943,69.9992,272.3721,269.1439,90.9383,-5.5232e-05,-7.52e-06,0.0,0 STARLINK-5595,1 55765U 23028AA  24209.62804177 -.00000752  00000-0 -55232-4 0  9992,2 55765  69.9992 272.3721 0002943 269.1439  90.9383 14.98331864 78149,6950.187,96.107,574.098,570.007,0.0
55765.0,STARLINK-5595,PAYLOAD,2024-07-28 11:54:07,14.983311,0.0002978,69.999,270.1838,266.0464,94.0355,-2.6621e-05,-4.11e-06,0.0,0 STARLINK-5595,1 55765U 23028AA  24210.49591992 -.00000411  00000-0 -26621-4 0  9999,2 55765  69.9990 270.1838 0002978 266.0464  94.0355 14.98331100 78264,6950.189,96.107,574.124,569.985,0.0
55765.0,STARLINK-5595,PAYLOAD,2024-07-28 13:30:15,14.98331046,0.0003042,69.9988,270.0153,267.1172,92.9639,-3.2678e-05,-4.83e-06,0.0,0 STARLINK-5595,1 55765U 23028AA  24210.56267998 -.00000483  00000-0 -32678-4 0  9991,2 55765  69.9988 270.0153 0003042 267.1172  92.9639 14.98331046 78284,6950.19,96.107,574.169,569.94,0.0
55765.0,STARLINK-5595,PAYLOAD,2024-07-29 13:32:16,14.98328435,0.0003178,69.9984,267.49,268.3545,91.725,4.5984e-06,-3.8e-07,0.0,0 STARLINK-5595,1 55765U 23028AA  24211.56408084 -.00000038  00000-0  45984-5 0  9995,2 55765  69.9984 267.4900 0003178 268.3545  91.7250 14.98328435 78438,6950.198,96.107,574.272,569.854,0.0
55765.0,STARLINK-5595,PAYLOAD,2024-07-29 21:32:57,14.98327398,0.0003211,69.9982,266.6474,268.4811,91.598,-2.2326e-05,-3.59e-06,0.0,0 STARLINK-5595,1 55765U 23028AA  24211.89788237 -.00000359  00000-0 -22326-4 0  9993,2 55765  69.9982 266.6474 0003211 268.4811  91.5980 14.98327398 78488,6950.201,96.107,574.298,569.834,0.0
55765.0,STARLINK-5595,PAYLOAD,2024-07-30 10:22:01,14.98332102,0.0003288,69.9981,265.3014,269.6094,90.4688,4.5982e-06,-3.8e-07,0.0,0 STARLINK-5595,1 55765U 23028AA  24212.43195883 -.00000038  00000-0  45982-5 0  9990,2 55765  69.9981 265.3014 0003288 269.6094  90.4688 14.98332102 78564,6950.186,96.107,574.337,569.766,0.0
55765.0,STARLINK-5595,PAYLOAD,2024-07-31 05:35:38,14.9832915,0.0003279,69.9979,263.281,270.1484,89.9299,4.6764e-06,-3.7e-07,0.0,0 STARLINK-5595,1 55765U 23028AA  24213.23308093 -.00000037  00000-0  46764-5 0  9996,2 55765  69.9979 263.2810 0003279 270.1484  89.9299 14.98329150 78674,6950.196,96.107,574.339,569.782,0.0
55765.0,STARLINK-5595,PAYLOAD,2024-07-31 13:36:18,14.98328729,0.0003291,69.9979,262.4395,270.2581,89.8201,-3.1682e-07,-9.7e-07,0.0,0 STARLINK-5595,1 55765U 23028AA  24213.56688160 -.00000097  00000-0 -31682-6 0  9999,2 55765  69.9979 262.4395 0003291 270.2581  89.8201 14.98328729 78736,6950.197,96.107,574.349,569.775,0.0
55765.0,STARLINK-5595,PAYLOAD,2024-08-01 12:02:10,14.98336147,0.0003182,69.998,260.0833,269.4918,90.5877,6.112e-05,6.36e-06,0.0,0 STARLINK-5595,1 55765U 23028AA  24214.50151481  .00000636  00000-0  61120-4 0  9990,2 55765  69.9980 260.0833 0003182 269.4918  90.5877 14.98336147 78878,6950.174,96.107,574.25,569.827,0.0
55765.0,STARLINK-5595,PAYLOAD,2024-08-02 04:03:32,14.98325802,0.0003032,69.9983,258.4007,267.4574,92.6238,6.8025e-06,-1.2e-07,0.0,0 STARLINK-5595,1 55765U 23028AA  24215.16912213 -.00000012  00000-0  68025-5 0  9992,2 55765  69.9983 258.4007 0003032 267.4574  92.6238 14.98325802 78965,6950.206,96.107,574.178,569.964,0.0
55765.0,STARLINK-5595,PAYLOAD,2024-08-02 13:40:20,14.98325406,0.0003101,69.9983,257.3901,269.8092,90.2711,-1.2454e-06,-1.08e-06,0.0,0 STARLINK-5595,1 55765U 23028AA  24215.56968372 -.00000108  00000-0 -12454-5 0  9995,2 55765  69.9983 257.3901 0003101 269.8092  90.2711 14.98325406 79033,6950.207,96.107,574.227,569.917,0.0
55765.0,STARLINK-5595,PAYLOAD,2024-08-02 20:04:52,14.98328773,0.0003104,69.9983,256.7169,269.7021,90.3783,1.6028e-05,9.8e-07,0.0,0 STARLINK-5595,1 55765U 23028AA  24215.83672140  .00000098  00000-0  16028-4 0  9996,2 55765  69.9983 256.7169 0003104 269.7021  90.3783 14.98328773 79070,6950.197,96.107,574.219,569.904,0.0
55765.0,STARLINK-5595,PAYLOAD,2024-08-03 04:05:32,14.98336805,0.000323,69.9979,255.8742,269.0406,91.0383,3.1603e-07,-8.9e-07,0.0,0 STARLINK-5595,1 55765U 23028AA  24216.17051598 -.00000089  00000-0  31603-6 0  9991,2 55765  69.9979 255.8742 0003230 269.0406  91.0383 14.98336805 79116,6950.172,96.107,574.282,569.792,0.0
